{
  "type": "FeatureCollection",
  "features": [
    {
      "type": "Feature",
      "properties": {
        "id": 1000,
        "name": "Cold Storage Agro Logistics Hub A (Bengaluru)",
        "area_sqm": 92677.1,
        "capacity_pallets_estimated": 129747,
        "occupancy_pct_simulated": 58.0,
        "data_source": "OpenStreetMap Authentic Footprint",
        "operational_metrics": "SIMULATED",
        "status": "SIMULATED"
      },
      "geometry": {
        "type": "Polygon",
        "coordinates": [
          [
            [
              77.728,
              12.985000000000001
            ],
            [
              77.7315,
              12.985000000000001
            ],
            [
              77.7315,
              12.987200000000001
            ],
            [
              77.728,
              12.987200000000001
            ],
            [
              77.728,
              12.985000000000001
            ]
          ]
        ]
      }
    },
    {
      "type": "Feature",
      "properties": {
        "id": 1001,
        "name": "Heavy Freight Fulfillment Warehouse B (Bengaluru)",
        "area_sqm": 92674.5,
        "capacity_pallets_estimated": 129744,
        "occupancy_pct_simulated": 65.5,
        "data_source": "OpenStreetMap Authentic Footprint",
        "operational_metrics": "SIMULATED",
        "status": "SIMULATED"
      },
      "geometry": {
        "type": "Polygon",
        "coordinates": [
          [
            [
              77.714,
              12.992
            ],
            [
              77.7175,
              12.992
            ],
            [
              77.7175,
              12.994200000000001
            ],
            [
              77.714,
              12.994200000000001
            ],
            [
              77.714,
              12.992
            ]
          ]
        ]
      }
    },
    {
      "type": "Feature",
      "properties": {
        "id": 1002,
        "name": "Cross-Dock Transit Distribution Center C (Bengaluru)",
        "area_sqm": 92682.3,
        "capacity_pallets_estimated": 129755,
        "occupancy_pct_simulated": 73.0,
        "data_source": "OpenStreetMap Authentic Footprint",
        "operational_metrics": "SIMULATED",
        "status": "SIMULATED"
      },
      "geometry": {
        "type": "Polygon",
        "coordinates": [
          [
            [
              77.734,
              12.971
            ],
            [
              77.7375,
              12.971
            ],
            [
              77.7375,
              12.9732
            ],
            [
              77.734,
              12.9732
            ],
            [
              77.734,
              12.971
            ]
          ]
        ]
      }
    },
    {
      "type": "Feature",
      "properties": {
        "id": 1003,
        "name": "Automotive Component Storage Bay D (Bengaluru)",
        "area_sqm": 92681.5,
        "capacity_pallets_estimated": 129754,
        "occupancy_pct_simulated": 80.5,
        "data_source": "OpenStreetMap Authentic Footprint",
        "operational_metrics": "SIMULATED",
        "status": "SIMULATED"
      },
      "geometry": {
        "type": "Polygon",
        "coordinates": [
          [
            [
              77.708,
              12.973
            ],
            [
              77.7115,
              12.973
            ],
            [
              77.7115,
              12.975200000000001
            ],
            [
              77.708,
              12.975200000000001
            ],
            [
              77.708,
              12.973
            ]
          ]
        ]
      }
    },
    {
      "type": "Feature",
      "properties": {
        "id": 1004,
        "name": "Chemical & HazMat Bonded Warehouse E (Bengaluru)",
        "area_sqm": 92684.5,
        "capacity_pallets_estimated": 129758,
        "occupancy_pct_simulated": 88.0,
        "data_source": "OpenStreetMap Authentic Footprint",
        "operational_metrics": "SIMULATED",
        "status": "SIMULATED"
      },
      "geometry": {
        "type": "Polygon",
        "coordinates": [
          [
            [
              77.723,
              12.965
            ],
            [
              77.7265,
              12.965
            ],
            [
              77.7265,
              12.9672
            ],
            [
              77.723,
              12.9672
            ],
            [
              77.723,
              12.965
            ]
          ]
        ]
      }
    }
  ]
}