{
  "type": "FeatureCollection",
  "features": [
    {
      "type": "Feature",
      "properties": {
        "id": 4001,
        "name": "Arterial Port Access Freight Expressway",
        "data_source": "OpenStreetMap"
      },
      "geometry": {
        "type": "LineString",
        "coordinates": [
          [
            77.69,
            12.96
          ],
          [
            77.71,
            12.975
          ],
          [
            77.73,
            12.99
          ],
          [
            77.75,
            13.0
          ]
        ]
      }
    }
  ]
}