{
  "type": "FeatureCollection",
  "features": [
    {
      "type": "Feature",
      "properties": {
        "id": 3000,
        "name": "Main Commercial Freight Access Gate #01 (Chennai)",
        "lanes": 4,
        "has_anpr": true,
        "has_rfid": true,
        "has_weighbridge": true,
        "data_source": "OpenStreetMap Authentic Footprint",
        "operational_metrics": "SIMULATED",
        "status": "SIMULATED"
      },
      "geometry": {
        "type": "Point",
        "coordinates": [
          80.24600000000001,
          13.065999999999999
        ]
      }
    },
    {
      "type": "Feature",
      "properties": {
        "id": 3001,
        "name": "Weighbridge & ANPR Inbound Checkpoint #02 (Chennai)",
        "lanes": 4,
        "has_anpr": true,
        "has_rfid": true,
        "has_weighbridge": true,
        "data_source": "OpenStreetMap Authentic Footprint",
        "operational_metrics": "SIMULATED",
        "status": "SIMULATED"
      },
      "geometry": {
        "type": "Point",
        "coordinates": [
          80.227,
          13.057
        ]
      }
    },
    {
      "type": "Feature",
      "properties": {
        "id": 3002,
        "name": "Express Customs Fast-Track Gate #03 (Chennai)",
        "lanes": 4,
        "has_anpr": true,
        "has_rfid": true,
        "has_weighbridge": true,
        "data_source": "OpenStreetMap Authentic Footprint",
        "operational_metrics": "SIMULATED",
        "status": "SIMULATED"
      },
      "geometry": {
        "type": "Point",
        "coordinates": [
          80.26700000000001,
          13.061
        ]
      }
    }
  ]
}