{
  "type": "FeatureCollection",
  "features": [
    {
      "type": "Feature",
      "properties": {
        "id": 4001,
        "name": "Arterial Port Access Freight Expressway",
        "data_source": "OpenStreetMap"
      },
      "geometry": {
        "type": "LineString",
        "coordinates": [
          [
            80.215,
            13.045
          ],
          [
            80.235,
            13.059999999999999
          ],
          [
            80.25500000000001,
            13.075
          ],
          [
            80.275,
            13.084999999999999
          ]
        ]
      }
    }
  ]
}