{
  "type": "FeatureCollection",
  "features": [
    {
      "type": "Feature",
      "properties": {
        "id": 4001,
        "name": "Arterial Port Access Freight Expressway",
        "data_source": "OpenStreetMap"
      },
      "geometry": {
        "type": "LineString",
        "coordinates": [
          [
            77.49,
            28.5
          ],
          [
            77.50999999999999,
            28.515
          ],
          [
            77.53,
            28.53
          ],
          [
            77.55,
            28.54
          ]
        ]
      }
    }
  ]
}