{"data_source": "SIMULATED", "status": "SIMULATED", "type": "FeatureCollection", "features": [{"type": "Feature", "properties": {"id": "gate_01", "name": "Main Gate (DEMO)", "lanes": 4, "has_anpr": true, "has_rfid": true, "has_weighbridge": true}, "geometry": {"type": "Point", "coordinates": [78.195, 8.74]}}, {"type": "Feature", "properties": {"id": "gate_02", "name": "Rail-side Gate (DEMO)", "lanes": 2, "has_anpr": false, "has_rfid": true, "has_weighbridge": false}, "geometry": {"type": "Point", "coordinates": [78.22, 8.75]}}, {"type": "Feature", "properties": {"id": "gate_03", "name": "Port-side Gate (DEMO)", "lanes": 3, "has_anpr": true, "has_rfid": false, "has_weighbridge": true}, "geometry": {"type": "Point", "coordinates": [78.205, 8.762]}}]}
