{"data_source": "SIMULATED", "note": "DEMO placeholder boundary near Thoothukudi Port vicinity. NOT a surveyed MMLP boundary. Do not use for planning.", "status": "SIMULATED", "type": "FeatureCollection", "features": [{"type": "Feature", "properties": {"id": "mmlp_boundary_01", "name": "Thoothukudi MMLP (DEMO boundary)", "area_sqkm_estimated": 1.8}, "geometry": {"type": "Polygon", "coordinates": [[[78.185, 8.735], [78.225, 8.735], [78.23, 8.76], [78.2, 8.77], [78.185, 8.755], [78.185, 8.735]]]}}]}
