{
  "type": "FeatureCollection",
  "features": [
    {
      "type": "Feature",
      "properties": {
        "id": 4001,
        "name": "Arterial Port Access Freight Expressway",
        "data_source": "OpenStreetMap"
      },
      "geometry": {
        "type": "LineString",
        "coordinates": [
          [
            72.948,
            18.935
          ],
          [
            72.96799999999999,
            18.95
          ],
          [
            72.988,
            18.965
          ],
          [
            73.008,
            18.974999999999998
          ]
        ]
      }
    }
  ]
}