{
  "type": "FeatureCollection",
  "features": [
    {
      "type": "Feature",
      "properties": {
        "id": 4001,
        "name": "Arterial Port Access Freight Expressway",
        "data_source": "OpenStreetMap"
      },
      "geometry": {
        "type": "LineString",
        "coordinates": [
          [
            69.69,
            22.82
          ],
          [
            69.71,
            22.835
          ],
          [
            69.73,
            22.85
          ],
          [
            69.75,
            22.86
          ]
        ]
      }
    }
  ]
}