{
  "type": "FeatureCollection",
  "features": [
    {
      "type": "Feature",
      "properties": {
        "id": "yard_block_a",
        "name": "Container Yard Block A (Dry Export)",
        "zone_type": "CONTAINER_DRY",
        "height": 13,
        "base_height": 0,
        "slots_total": 1200,
        "slots_occupied": 840,
        "bays": 12,
        "rows": 6,
        "max_tiers": 5,
        "color": "#2563eb"
      },
      "geometry": {
        "type": "Polygon",
        "coordinates": [
          [
            [78.1368, 8.7610],
            [78.1382, 8.7610],
            [78.1382, 8.7602],
            [78.1368, 8.7602],
            [78.1368, 8.7610]
          ]
        ]
      }
    },
    {
      "type": "Feature",
      "properties": {
        "id": "yard_block_b",
        "name": "Container Yard Block B (Dry Import)",
        "zone_type": "CONTAINER_DRY",
        "height": 11,
        "base_height": 0,
        "slots_total": 1200,
        "slots_occupied": 760,
        "bays": 12,
        "rows": 6,
        "max_tiers": 5,
        "color": "#3b82f6"
      },
      "geometry": {
        "type": "Polygon",
        "coordinates": [
          [
            [78.1385, 8.7610],
            [78.1399, 8.7610],
            [78.1399, 8.7602],
            [78.1385, 8.7602],
            [78.1385, 8.7610]
          ]
        ]
      }
    },
    {
      "type": "Feature",
      "properties": {
        "id": "yard_block_c",
        "name": "Container Yard Block C (Reefer Stacks)",
        "zone_type": "REEFER_REEF",
        "height": 8.5,
        "base_height": 0,
        "slots_total": 600,
        "slots_occupied": 420,
        "bays": 8,
        "rows": 4,
        "max_tiers": 3,
        "color": "#0ea5e9"
      },
      "geometry": {
        "type": "Polygon",
        "coordinates": [
          [
            [78.1354, 8.7610],
            [78.1365, 8.7610],
            [78.1365, 8.7602],
            [78.1354, 8.7602],
            [78.1354, 8.7610]
          ]
        ]
      }
    },
    {
      "type": "Feature",
      "properties": {
        "id": "yard_block_d",
        "name": "Container Yard Block D (Hazmat Isolation)",
        "zone_type": "HAZMAT_ISOLATION",
        "height": 5.5,
        "base_height": 0,
        "slots_total": 300,
        "slots_occupied": 110,
        "bays": 6,
        "rows": 3,
        "max_tiers": 2,
        "color": "#f97316"
      },
      "geometry": {
        "type": "Polygon",
        "coordinates": [
          [
            [78.1340, 8.7610],
            [78.1350, 8.7610],
            [78.1350, 8.7602],
            [78.1340, 8.7602],
            [78.1340, 8.7610]
          ]
        ]
      }
    },
    {
      "type": "Feature",
      "properties": {
        "id": "yard_rail_siding",
        "name": "Intermodal Rail Transfer Siding Yard",
        "zone_type": "RAIL_INTERMODAL",
        "height": 6.0,
        "base_height": 0,
        "slots_total": 800,
        "slots_occupied": 480,
        "bays": 16,
        "rows": 2,
        "max_tiers": 2,
        "color": "#a855f7"
      },
      "geometry": {
        "type": "Polygon",
        "coordinates": [
          [
            [78.1352, 8.7648],
            [78.1388, 8.7648],
            [78.1388, 8.7642],
            [78.1352, 8.7642],
            [78.1352, 8.7648]
          ]
        ]
      }
    }
  ]
}