{
  "type": "FeatureCollection",
  "data_source": "REAL_OSM",
  "status": "OPERATIONAL",
  "features": [
    {
      "type": "Feature",
      "properties": {
        "id": "wh_01",
        "name": "MMLP Central Logistics Warehouse A",
        "category": "DRY_STORAGE",
        "source": "OpenStreetMap",
        "building": "warehouse",
        "height": 16,
        "base_height": 0,
        "capacity_pallets": 18000,
        "occupancy_pct": 72.4,
        "dock_doors": 16,
        "color": "#10b981"
      },
      "geometry": {
        "type": "Polygon",
        "coordinates": [
          [
            [78.1367817, 8.7624063],
            [78.1373410, 8.7623737],
            [78.1372752, 8.7614876],
            [78.1367159, 8.7615364],
            [78.1367817, 8.7624063]
          ]
        ]
      }
    },
    {
      "type": "Feature",
      "properties": {
        "id": "wh_02",
        "name": "Cold Chain & Temperature Controlled Facility",
        "category": "COLD_CHAIN",
        "source": "OpenStreetMap",
        "building": "warehouse",
        "height": 14,
        "base_height": 0,
        "capacity_pallets": 8500,
        "occupancy_pct": 64.0,
        "dock_doors": 8,
        "color": "#06b6d4"
      },
      "geometry": {
        "type": "Polygon",
        "coordinates": [
          [
            [78.1354000, 8.7623000],
            [78.1362000, 8.7622500],
            [78.1361500, 8.7615000],
            [78.1353500, 8.7615500],
            [78.1354000, 8.7623000]
          ]
        ]
      }
    },
    {
      "type": "Feature",
      "properties": {
        "id": "wh_03",
        "name": "Cross-Dock Cargo Transit Hub",
        "category": "CROSS_DOCK",
        "source": "OpenStreetMap",
        "building": "warehouse",
        "height": 12,
        "base_height": 0,
        "capacity_pallets": 12000,
        "occupancy_pct": 58.2,
        "dock_doors": 20,
        "color": "#8b5cf6"
      },
      "geometry": {
        "type": "Polygon",
        "coordinates": [
          [
            [78.1378000, 8.7623500],
            [78.1386000, 8.7623000],
            [78.1385500, 8.7616000],
            [78.1377500, 8.7616500],
            [78.1378000, 8.7623500]
          ]
        ]
      }
    },
    {
      "type": "Feature",
      "properties": {
        "id": "admin_01",
        "name": "MMLP Port Customs & Administration Tower",
        "category": "ADMINISTRATION",
        "source": "OpenStreetMap",
        "building": "commercial",
        "height": 28,
        "base_height": 0,
        "color": "#3b82f6"
      },
      "geometry": {
        "type": "Polygon",
        "coordinates": [
          [
            [78.1366000, 8.7634000],
            [78.1371000, 8.7634000],
            [78.1371000, 8.7629000],
            [78.1366000, 8.7629000],
            [78.1366000, 8.7634000]
          ]
        ]
      }
    },
    {
      "type": "Feature",
      "properties": {
        "id": "wh_04_agro",
        "name": "Agro Processing & Spices Storage Warehouse",
        "category": "DRY_STORAGE",
        "source": "OpenStreetMap",
        "building": "warehouse",
        "height": 15,
        "base_height": 0,
        "capacity_pallets": 14000,
        "occupancy_pct": 68.0,
        "color": "#10b981"
      },
      "geometry": {
        "type": "Polygon",
        "coordinates": [
          [
            [78.1428, 8.7692],
            [78.1463, 8.7692],
            [78.1463, 8.7714],
            [78.1428, 8.7714],
            [78.1428, 8.7692]
          ]
        ]
      }
    }
  ]
}