{"data_source": "SIMULATED", "status": "SIMULATED", "type": "FeatureCollection", "features": [{"type": "Feature", "properties": {"id": "road_01", "name": "Port Access Road (DEMO)", "lanes": 4}, "geometry": {"type": "LineString", "coordinates": [[78.195, 8.74], [78.205, 8.75], [78.205, 8.762]]}}, {"type": "Feature", "properties": {"id": "road_02", "name": "Rail Link Road (DEMO)", "lanes": 2}, "geometry": {"type": "LineString", "coordinates": [[78.205, 8.75], [78.22, 8.75]]}}, {"type": "Feature", "properties": {"id": "road_03", "name": "Southern Perimeter Road (DEMO)", "lanes": 2}, "geometry": {"type": "LineString", "coordinates": [[78.185, 8.735], [78.225, 8.735]]]}}]}
