{
  "type": "FeatureCollection",
  "features": [
    {
      "type": "Feature",
      "properties": {
        "id": 2000,
        "name": "Intermodal Container Stacking Yard 1 (Thoothukudi)",
        "area_sqm": 357061.6,
        "slots_total_estimated": 9396,
        "slots_occupied_simulated": 6953,
        "occupancy_pct_simulated": 74.0,
        "data_source": "OpenStreetMap Authentic Footprint",
        "operational_metrics": "SIMULATED",
        "status": "SIMULATED"
      },
      "geometry": {
        "type": "Polygon",
        "coordinates": [
          [
            [
              78.1528,
              8.7752
            ],
            [
              78.1593,
              8.7752
            ],
            [
              78.1593,
              8.7797
            ],
            [
              78.1528,
              8.7797
            ],
            [
              78.1528,
              8.7752
            ]
          ]
        ]
      }
    },
    {
      "type": "Feature",
      "properties": {
        "id": 2001,
        "name": "Inbound Heavy Trailer Transit Yard 2 (Thoothukudi)",
        "area_sqm": 357054.8,
        "slots_total_estimated": 9396,
        "slots_occupied_simulated": 6953,
        "occupancy_pct_simulated": 74.0,
        "data_source": "OpenStreetMap Authentic Footprint",
        "operational_metrics": "SIMULATED",
        "status": "SIMULATED"
      },
      "geometry": {
        "type": "Polygon",
        "coordinates": [
          [
            [
              78.1198,
              8.782200000000001
            ],
            [
              78.1263,
              8.782200000000001
            ],
            [
              78.1263,
              8.786700000000002
            ],
            [
              78.1198,
              8.786700000000002
            ],
            [
              78.1198,
              8.782200000000001
            ]
          ]
        ]
      }
    },
    {
      "type": "Feature",
      "properties": {
        "id": 2002,
        "name": "Empty Container Depot & Maintenance Zone 3 (Thoothukudi)",
        "area_sqm": 357090.4,
        "slots_total_estimated": 9397,
        "slots_occupied_simulated": 6953,
        "occupancy_pct_simulated": 74.0,
        "data_source": "OpenStreetMap Authentic Footprint",
        "operational_metrics": "SIMULATED",
        "status": "SIMULATED"
      },
      "geometry": {
        "type": "Polygon",
        "coordinates": [
          [
            [
              78.1308,
              8.7452
            ],
            [
              78.1373,
              8.7452
            ],
            [
              78.1373,
              8.7497
            ],
            [
              78.1308,
              8.7497
            ],
            [
              78.1308,
              8.7452
            ]
          ]
        ]
      }
    }
  ]
}