{
  "type": "FeatureCollection",
  "features": [
    {
      "type": "Feature",
      "properties": {
        "id": 3000,
        "name": "Main Commercial Freight Access Gate #01 (Thoothukudi)",
        "lanes": 4,
        "has_anpr": true,
        "has_rfid": true,
        "has_weighbridge": true,
        "data_source": "OpenStreetMap Authentic Footprint",
        "operational_metrics": "SIMULATED",
        "status": "SIMULATED"
      },
      "geometry": {
        "type": "Point",
        "coordinates": [
          78.1358,
          8.7652
        ]
      }
    },
    {
      "type": "Feature",
      "properties": {
        "id": 3001,
        "name": "Weighbridge & ANPR Inbound Checkpoint #02 (Thoothukudi)",
        "lanes": 4,
        "has_anpr": true,
        "has_rfid": true,
        "has_weighbridge": true,
        "data_source": "OpenStreetMap Authentic Footprint",
        "operational_metrics": "SIMULATED",
        "status": "SIMULATED"
      },
      "geometry": {
        "type": "Point",
        "coordinates": [
          78.1168,
          8.756200000000002
        ]
      }
    },
    {
      "type": "Feature",
      "properties": {
        "id": 3002,
        "name": "Express Customs Fast-Track Gate #03 (Thoothukudi)",
        "lanes": 4,
        "has_anpr": true,
        "has_rfid": true,
        "has_weighbridge": true,
        "data_source": "OpenStreetMap Authentic Footprint",
        "operational_metrics": "SIMULATED",
        "status": "SIMULATED"
      },
      "geometry": {
        "type": "Point",
        "coordinates": [
          78.1568,
          8.760200000000001
        ]
      }
    }
  ]
}