{
  "type": "FeatureCollection",
  "features": [
    {
      "type": "Feature",
      "properties": {
        "id": 4001,
        "name": "Arterial Port Access Freight Expressway",
        "data_source": "OpenStreetMap"
      },
      "geometry": {
        "type": "LineString",
        "coordinates": [
          [
            78.1048,
            8.744200000000001
          ],
          [
            78.1248,
            8.7592
          ],
          [
            78.1448,
            8.7742
          ],
          [
            78.1648,
            8.7842
          ]
        ]
      }
    }
  ]
}