{"data_source": "SIMULATED", "status": "SIMULATED", "type": "FeatureCollection", "features": [{"type": "Feature", "properties": {"id": "wh_01", "name": "Warehouse A (DEMO)", "capacity_pallets_estimated": 5000, "occupancy_pct_simulated": 62}, "geometry": {"type": "Polygon", "coordinates": [[[78.2, 8.745], [78.21, 8.745], [78.21, 8.752], [78.2, 8.752], [78.2, 8.745]]]}}, {"type": "Feature", "properties": {"id": "wh_02", "name": "Warehouse B (DEMO)", "capacity_pallets_estimated": 3000, "occupancy_pct_simulated": 41}, "geometry": {"type": "Polygon", "coordinates": [[[78.212, 8.745], [78.219, 8.745], [78.219, 8.751], [78.212, 8.751], [78.212, 8.745]]]}}]}
