{"data_source": "SIMULATED", "status": "SIMULATED", "type": "FeatureCollection", "features": [{"type": "Feature", "properties": {"id": "yard_zone_01", "name": "Container Yard Zone 1 (DEMO)", "slots_total_estimated": 240, "slots_occupied_simulated": 148}, "geometry": {"type": "Polygon", "coordinates": [[[78.19, 8.752], [78.198, 8.752], [78.198, 8.76], [78.19, 8.76], [78.19, 8.752]]]}}, {"type": "Feature", "properties": {"id": "yard_zone_02", "name": "Container Yard Zone 2 (DEMO)", "slots_total_estimated": 180, "slots_occupied_simulated": 63}, "geometry": {"type": "Polygon", "coordinates": [[[78.21, 8.754], [78.222, 8.754], [78.222, 8.762], [78.21, 8.762], [78.21, 8.754]]]}}]}
